H1 CPF  1  DGF 2022 04 15 11  6051 larets     NONE      
H2   304206 5557    27944 2022 04 15 00 00 00 2022 04 22 00 00 00    30 1 1  0 0 0
H5  0.0650
H9
10 0 59684  64800.000000  0        753918.344        695873.777       6969873.471
10 0 59684  64830.000000  0        872049.638        500987.575       6972677.011
10 0 59684  64860.000000  0        988440.181        305079.305       6968344.791
10 0 59684  64890.000000  0       1102967.653        108355.864       6956880.785
10 0 59684  64920.000000  0       1215512.519        -88974.467       6938296.247
10 0 59684  64950.000000  0       1325958.150       -286702.248       6912609.698
10 0 59684  64980.000000  0       1434190.951       -484617.100       6879846.913
10 0 59684  65010.000000  0       1540100.474       -682507.940       6840040.891
10 0 59684  65040.000000  0       1643579.539       -880163.194       6793231.823
10 0 59684  65070.000000  0       1744524.334      -1077371.032       6739467.062
10 0 59684  65100.000000  0       1842834.533      -1273919.593       6678801.078
10 0 59684  65130.000000  0       1938413.390      -1469597.217       6611295.407
10 0 59684  65160.000000  0       2031167.845      -1664192.681       6537018.595
10 0 59684  65190.000000  0       2121008.609      -1857495.427       6456046.129
10 0 59684  65220.000000  0       2207850.260      -2049295.797       6368460.365
10 0 59684  65250.000000  0       2291611.322      -2239385.259       6274350.447
10 0 59684  65280.000000  0       2372214.350      -2427556.640       6173812.224
10 0 59684  65310.000000  0       2449585.999      -2613604.358       6066948.152
10 0 59684  65340.000000  0       2523657.099      -2797324.652       5953867.195
10 0 59684  65370.000000  0       2594362.711      -2978515.808       5834684.716
10 0 59684  65400.000000  0       2661642.192      -3156978.390       5709522.361
10 0 59684  65430.000000  0       2725439.243      -3332515.457       5578507.943
10 0 59684  65460.000000  0       2785701.963      -3504932.795       5441775.306
10 0 59684  65490.000000  0       2842382.886      -3674039.129       5299464.204
10 0 59684  65520.000000  0       2895439.027      -3839646.348       5151720.150
10 0 59684  65550.000000  0       2944831.909      -4001569.718       4998694.280
10 0 59684  65580.000000  0       2990527.596      -4159628.102       4840543.195
10 0 59684  65610.000000  0       3032496.710      -4313644.168       4677428.798
10 0 59684  65640.000000  0       3070714.454      -4463444.595       4509518.129
10 0 59684  65670.000000  0       3105160.613      -4608860.276       4336983.191
10 0 59684  65700.000000  0       3135819.564      -4749726.510       4160000.771
10 0 59684  65730.000000  0       3162680.270      -4885883.200       3978752.264
10 0 59684  65760.000000  0       3185736.282      -5017175.042       3793423.484
10 0 59684  65790.000000  0       3204985.716      -5143451.709       3604204.469
10 0 59684  65820.000000  0       3220431.247      -5264568.034       3411289.285
10 0 59684  65850.000000  0       3232080.078      -5380384.180       3214875.818
10 0 59684  65880.000000  0       3239943.913      -5490765.810       3015165.570
10 0 59684  65910.000000  0       3244038.918      -5595584.249       2812363.441
10 0 59684  65940.000000  0       3244385.684      -5694716.632       2606677.517
10 0 59684  65970.000000  0       3241009.176      -5788046.062       2398318.853
10 0 59684  66000.000000  0       3233938.686      -5875461.748       2187501.242
10 0 59684  66030.000000  0       3223207.769      -5956859.135       1974440.995
10 0 59684  66060.000000  0       3208854.185      -6032140.038       1759356.709
10 0 59684  66090.000000  0       3190919.833      -6101212.752       1542469.038
10 0 59684  66120.000000  0       3169450.680      -6163992.174       1324000.460
10 0 59684  66150.000000  0       3144496.688      -6220399.905       1104175.040
10 0 59684  66180.000000  0       3116111.723      -6270364.345        883218.191
10 0 59684  66210.000000  0       3084353.478      -6313820.790        661356.441
10 0 59684  66240.000000  0       3049283.376      -6350711.511        438817.190
10 0 59684  66270.000000  0       3010966.479      -6380985.836        215828.463
10 0 59684  66300.000000  0       2969471.382      -6404600.214         -7381.335
10 0 59684  66330.000000  0       2924870.112      -6421518.263       -230583.665
10 0 59684  66360.000000  0       2877238.016      -6431710.821       -453550.097
10 0 59684  66390.000000  0       2826653.647      -6435155.978       -676052.552
10 0 59684  66420.000000  0       2773198.650      -6431839.107       -897863.541
10 0 59684  66450.000000  0       2716957.641      -6421752.883      -1118756.404
10 0 59684  66480.000000  0       2658018.082      -6404897.299      -1338505.548
10 0 59684  66510.000000  0       2596470.159      -6381279.669      -1556886.679
10 0 59684  66540.000000  0       2532406.648      -6350914.626      -1773677.041
10 0 59684  66570.000000  0       2465922.790      -6313824.109      -1988655.647
10 0 59684  66600.000000  0       2397116.160      -6270037.343      -2201603.511
10 0 59684  66630.000000  0       2326086.529      -6219590.810      -2412303.881
10 0 59684  66660.000000  0       2252935.715      -6162528.212      -2620542.463
10 0 59684  66690.000000  0       2177767.442      -6098900.411      -2826107.647
10 0 59684  66720.000000  0       2100687.198      -6028765.375      -3028790.709
10 0 59684  66750.000000  0       2021802.090      -5952188.115      -3228386.026
10 0 59684  66780.000000  0       1941220.708      -5869240.611      -3424691.283
10 0 59684  66810.000000  0       1859052.976      -5780001.733      -3617507.676
10 0 59684  66840.000000  0       1775410.010      -5684557.156      -3806640.112
10 0 59684  66870.000000  0       1690403.968      -5582999.260      -3991897.402
10 0 59684  66900.000000  0       1604147.911      -5475427.033      -4173092.447
10 0 59684  66930.000000  0       1516755.650      -5361945.960      -4350042.422
10 0 59684  66960.000000  0       1428341.605      -5242667.909      -4522568.956
10 0 59684  66990.000000  0       1339020.656      -5117711.009      -4690498.301
10 0 59684  67020.000000  0       1248908.002      -4987199.527      -4853661.499
10 0 59684  67050.000000  0       1158119.014      -4851263.727      -5011894.547
10 0 59684  67080.000000  0       1066769.092      -4710039.736      -5165038.551
10 0 59684  67110.000000  0        974973.525      -4563669.396      -5312939.878
10 0 59684  67140.000000  0        882847.346      -4412300.113      -5455450.298
10 0 59684  67170.000000  0        790505.196      -4256084.697      -5592427.125
10 0 59684  67200.000000  0        698061.182      -4095181.202      -5723733.345
10 0 59684  67230.000000  0        605628.743      -3929752.759      -5849237.745
10 0 59684  67260.000000  0        513320.516      -3759967.404      -5968815.028
10 0 59684  67290.000000  0        421248.202      -3585997.903      -6082345.931
10 0 59684  67320.000000  0        329522.434      -3408021.570      -6189717.330
10 0 59684  67350.000000  0        238252.655      -3226220.085      -6290822.339
10 0 59684  67380.000000  0        147546.985      -3040779.303      -6385560.408
10 0 59684  67410.000000  0         57512.102      -2851889.066      -6473837.411
10 0 59684  67440.000000  0        -31746.878      -2659743.003      -6555565.730
10 0 59684  67470.000000  0       -120126.522      -2464538.333      -6630664.325
10 0 59684  67500.000000  0       -207525.193      -2266475.663      -6699058.809
10 0 59684  67530.000000  0       -293843.163      -2065758.786      -6760681.512
10 0 59684  67560.000000  0       -378982.717      -1862594.471      -6815471.534
10 0 59684  67590.000000  0       -462848.267      -1657192.255      -6863374.804
10 0 59684  67620.000000  0       -545346.446      -1449764.230      -6904344.124
10 0 59684  67650.000000  0       -626386.213      -1240524.824      -6938339.205
10 0 59684  67680.000000  0       -705878.947      -1029690.587      -6965326.705
10 0 59684  67710.000000  0       -783738.540       -817479.971      -6985280.250
10 0 59684  67740.000000  0       -859881.487       -604113.108      -6998180.460
10 0 59684  67770.000000  0       -934226.975       -389811.589      -7004014.956
10 0 59684  67800.000000  0      -1006696.959       -174798.242      -7002778.369
10 0 59684  67830.000000  0      -1077216.248         40703.087      -6994472.347
10 0 59684  67860.000000  0      -1145712.574        256467.766      -6979105.548
10 0 59684  67890.000000  0      -1212116.670        472270.598      -6956693.637
10 0 59684  67920.000000  0      -1276362.333        687886.054      -6927259.267
10 0 59684  67950.000000  0      -1338386.487        903088.501      -6890832.060
10 0 59684  67980.000000  0      -1398129.246       1117652.432      -6847448.578
10 0 59684  68010.000000  0      -1455533.968       1331352.691      -6797152.281
10 0 59684  68040.000000  0      -1510547.306       1543964.704      -6739993.497
10 0 59684  68070.000000  0      -1563119.258       1755264.698      -6676029.377
10 0 59684  68100.000000  0      -1613203.209       1965029.942      -6605323.847
10 0 59684  68130.000000  0      -1660755.975       2173038.969      -6527947.552
10 0 59684  68160.000000  0      -1705737.841       2379071.812      -6443977.795
10 0 59684  68190.000000  0      -1748112.589       2582910.230      -6353498.465
10 0 59684  68220.000000  0      -1787847.532       2784337.941      -6256599.960
10 0 59684  68250.000000  0      -1824913.534       2983140.840      -6153379.106
10 0 59684  68280.000000  0      -1859285.029       3179107.226      -6043939.069
10 0 59684  68310.000000  0      -1890940.036       3372028.025      -5928389.262
10 0 59684  68340.000000  0      -1919860.172       3561697.011      -5806845.254
10 0 59684  68370.000000  0      -1946030.662       3747911.031      -5679428.658
99
